{
  "type": "FeatureCollection",
  "features": [
    {
      "type": "Feature",
      "properties": {
        "norad_id": 66625,
        "name": "STARLINK-35929",
        "group": "last-30-days",
        "lat": 52.349834652852124,
        "lon": -63.58463243108733,
        "alt_km": 394.6983283917634,
        "timestamp": "2025-12-11T13:55:00.914874+00:00",
        "meta_object_name": "STARLINK-35929",
        "meta_object_id": "2025-271J",
        "meta_epoch": "2025-12-11T06:00:02.999808",
        "meta_mean_motion": 15.5642857,
        "meta_eccentricity": 7.877e-05,
        "meta_inclination": 53.16,
        "meta_ra_of_asc_node": 194.3626,
        "meta_arg_of_pericenter": 93.6652,
        "meta_mean_anomaly": 316.3359,
        "meta_ephemeris_type": 0,
        "meta_classification_type": "U",
        "meta_norad_cat_id": 66625,
        "meta_element_set_no": 999,
        "meta_rev_at_epoch": 400,
        "meta_bstar": -0.032887491,
        "meta_mean_motion_dot": -0.0210532,
        "meta_mean_motion_ddot": 0,
        "tle_line1": "1 66625U 25271J   25345.25003472 -.02105320  00000+0 -32887-1 0  9997",
        "tle_line2": "2 66625  53.1600 194.3626 0000787  93.6652 316.3359 15.56428570  4003"
      },
      "geometry": {
        "type": "Point",
        "coordinates": [
          -63.58463243108733,
          52.349834652852124
        ]
      }
    },
    {
      "type": "Feature",
      "properties": {
        "norad_id": 66626,
        "name": "STARLINK-35902",
        "group": "last-30-days",
        "lat": 51.946793319643135,
        "lon": -60.52417475240208,
        "alt_km": 394.6398059219273,
        "timestamp": "2025-12-11T13:55:00.914884+00:00",
        "meta_object_name": "STARLINK-35902",
        "meta_object_id": "2025-271K",
        "meta_epoch": "2025-12-11T06:00:02.999808",
        "meta_mean_motion": 15.56429406,
        "meta_eccentricity": 9.546e-05,
        "meta_inclination": 53.1598,
        "meta_ra_of_asc_node": 194.3589,
        "meta_arg_of_pericenter": 92.0972,
        "meta_mean_anomaly": 319.8224,
        "meta_ephemeris_type": 0,
        "meta_classification_type": "U",
        "meta_norad_cat_id": 66626,
        "meta_element_set_no": 999,
        "meta_rev_at_epoch": 400,
        "meta_bstar": -0.032912985,
        "meta_mean_motion_dot": -0.02106936,
        "meta_mean_motion_ddot": 0,
        "tle_line1": "1 66626U 25271K   25345.25003472 -.02106936  00000+0 -32913-1 0  9992",
        "tle_line2": "2 66626  53.1598 194.3589 0000954  92.0972 319.8224 15.56429406  4000"
      },
      "geometry": {
        "type": "Point",
        "coordinates": [
          -60.52417475240208,
          51.946793319643135
        ]
      }
    },
    {
      "type": "Feature",
      "properties": {
        "norad_id": 66627,
        "name": "STARLINK-35904",
        "group": "last-30-days",
        "lat": 51.46656713310171,
        "lon": -57.52750417453123,
        "alt_km": 394.75462346390395,
        "timestamp": "2025-12-11T13:55:00.914898+00:00",
        "meta_object_name": "STARLINK-35904",
        "meta_object_id": "2025-271L",
        "meta_epoch": "2025-12-11T06:00:02.999808",
        "meta_mean_motion": 15.56438194,
        "meta_eccentricity": 9.047e-05,
        "meta_inclination": 53.1598,
        "meta_ra_of_asc_node": 194.3549,
        "meta_arg_of_pericenter": 85.8369,
        "meta_mean_anomaly": 327.9927,
        "meta_ephemeris_type": 0,
        "meta_classification_type": "U",
        "meta_norad_cat_id": 66627,
        "meta_element_set_no": 999,
        "meta_rev_at_epoch": 384,
        "meta_bstar": -0.03308344,
        "meta_mean_motion_dot": -0.02117226,
        "meta_mean_motion_ddot": 0,
        "tle_line1": "1 66627U 25271L   25345.25003472 -.02117226  00000+0 -33083-1 0  9996",
        "tle_line2": "2 66627  53.1598 194.3549 0000904  85.8369 327.9927 15.56438194  3847"
      },
      "geometry": {
        "type": "Point",
        "coordinates": [
          -57.52750417453123,
          51.46656713310171
        ]
      }
    },
    {
      "type": "Feature",
      "properties": {
        "norad_id": 66628,
        "name": "STARLINK-35862",
        "group": "last-30-days",
        "lat": 50.91090121555727,
        "lon": -54.59601567137552,
        "alt_km": 394.81253064905286,
        "timestamp": "2025-12-11T13:55:00.914909+00:00",
        "meta_object_name": "STARLINK-35862",
        "meta_object_id": "2025-271M",
        "meta_epoch": "2025-12-11T06:00:02.999808",
        "meta_mean_motion": 15.56431429,
        "meta_eccentricity": 0.00010098,
        "meta_inclination": 53.1597,
        "meta_ra_of_asc_node": 194.3509,
        "meta_arg_of_pericenter": 74.7355,
        "meta_mean_anomaly": 341.0147,
        "meta_ephemeris_type": 0,
        "meta_classification_type": "U",
        "meta_norad_cat_id": 66628,
        "meta_element_set_no": 999,
        "meta_rev_at_epoch": 400,
        "meta_bstar": -0.032949441,
        "meta_mean_motion_dot": -0.02109191,
        "meta_mean_motion_ddot": 0,
        "tle_line1": "1 66628U 25271M   25345.25003472 -.02109191  00000+0 -32949-1 0  9999",
        "tle_line2": "2 66628  53.1597 194.3509 0001009  74.7355 341.0147 15.56431429  4006"
      },
      "geometry": {
        "type": "Point",
        "coordinates": [
          -54.59601567137552,
          50.91090121555727
        ]
      }
    },
    {
      "type": "Feature",
      "properties": {
        "norad_id": 66629,
        "name": "STARLINK-35956",
        "group": "last-30-days",
        "lat": 50.283715001740816,
        "lon": -51.738075257984406,
        "alt_km": 394.8477364047767,
        "timestamp": "2025-12-11T13:55:00.914918+00:00",
        "meta_object_name": "STARLINK-35956",
        "meta_object_id": "2025-271N",
        "meta_epoch": "2025-12-11T06:00:02.999808",
        "meta_mean_motion": 15.56430467,
        "meta_eccentricity": 0.00010901,
        "meta_inclination": 53.1598,
        "meta_ra_of_asc_node": 194.3473,
        "meta_arg_of_pericenter": 77.4139,
        "meta_mean_anomaly": 340.255,
        "meta_ephemeris_type": 0,
        "meta_classification_type": "U",
        "meta_norad_cat_id": 66629,
        "meta_element_set_no": 999,
        "meta_rev_at_epoch": 400,
        "meta_bstar": -0.032933323,
        "meta_mean_motion_dot": -0.02108257,
        "meta_mean_motion_ddot": 0,
        "tle_line1": "1 66629U 25271N   25345.25003472 -.02108257  00000+0 -32933-1 0  9995",
        "tle_line2": "2 66629  53.1598 194.3473 0001090  77.4139 340.2550 15.56430467  4008"
      },
      "geometry": {
        "type": "Point",
        "coordinates": [
          -51.738075257984406,
          50.283715001740816
        ]
      }
    },
    {
      "type": "Feature",
      "properties": {
        "norad_id": 66630,
        "name": "STARLINK-35949",
        "group": "last-30-days",
        "lat": 49.59000638945424,
        "lon": -48.96754267045565,
        "alt_km": 394.99241847569556,
        "timestamp": "2025-12-11T13:55:00.914929+00:00",
        "meta_object_name": "STARLINK-35949",
        "meta_object_id": "2025-271P",
        "meta_epoch": "2025-12-11T06:00:02.999808",
        "meta_mean_motion": 15.56430543,
        "meta_eccentricity": 9.274e-05,
        "meta_inclination": 53.1598,
        "meta_ra_of_asc_node": 194.342,
        "meta_arg_of_pericenter": 95.8727,
        "meta_mean_anomaly": 323.7138,
        "meta_ephemeris_type": 0,
        "meta_classification_type": "U",
        "meta_norad_cat_id": 66630,
        "meta_element_set_no": 999,
        "meta_rev_at_epoch": 400,
        "meta_bstar": -0.032956105,
        "meta_mean_motion_dot": -0.02109454,
        "meta_mean_motion_ddot": 0,
        "tle_line1": "1 66630U 25271P   25345.25003472 -.02109454  00000+0 -32956-1 0  9992",
        "tle_line2": "2 66630  53.1598 194.3420 0000927  95.8727 323.7138 15.56430543  4000"
      },
      "geometry": {
        "type": "Point",
        "coordinates": [
          -48.96754267045565,
          49.59000638945424
        ]
      }
    },
    {
      "type": "Feature",
      "properties": {
        "norad_id": 66631,
        "name": "STARLINK-35965",
        "group": "last-30-days",
        "lat": 48.82963962962759,
        "lon": -46.26871829751325,
        "alt_km": 395.0690570241659,
        "timestamp": "2025-12-11T13:55:00.914939+00:00",
        "meta_object_name": "STARLINK-35965",
        "meta_object_id": "2025-271Q",
        "meta_epoch": "2025-12-11T06:00:02.999808",
        "meta_mean_motion": 15.56428581,
        "meta_eccentricity": 0.0001053,
        "meta_inclination": 53.1598,
        "meta_ra_of_asc_node": 194.339,
        "meta_arg_of_pericenter": 83.0056,
        "meta_mean_anomaly": 338.4965,
        "meta_ephemeris_type": 0,
        "meta_classification_type": "U",
        "meta_norad_cat_id": 66631,
        "meta_element_set_no": 999,
        "meta_rev_at_epoch": 400,
        "meta_bstar": -0.032880748,
        "meta_mean_motion_dot": -0.02105106,
        "meta_mean_motion_ddot": 0,
        "tle_line1": "1 66631U 25271Q   25345.25003472 -.02105106  00000+0 -32881-1 0  9990",
        "tle_line2": "2 66631  53.1598 194.3390 0001053  83.0056 338.4965 15.56428581  4002"
      },
      "geometry": {
        "type": "Point",
        "coordinates": [
          -46.26871829751325,
          48.82963962962759
        ]
      }
    }
  ]
}